NORAD_CAT_ID,OBJECT_NAME,OBJECT_TYPE,EPOCH,MEAN_MOTION,ECCENTRICITY,INCLINATION,RA_OF_ASC_NODE,ARG_OF_PERICENTER,MEAN_ANOMALY,BSTAR,MEAN_MOTION_DOT,MEAN_MOTION_DDOT,TLE_LINE0,TLE_LINE1,TLE_LINE2,SEMIMAJOR_AXIS,PERIOD,APOGEE,PERIGEE,DECAYED
53995.0,STARLINK-5097,PAYLOAD,2024-05-09 19:13:10,15.08843244,0.0001229,53.2165,336.8416,79.7355,280.3776,0.0002294,3.365e-05,0.0,0 STARLINK-5097,1 53995U 22125AH  24130.80082157  .00003365  00000-0  22940-3 0  9991,2 53995  53.2165 336.8416 0001229  79.7355 280.3776 15.08843244 88554,6917.87,95.437,540.586,538.885,0.0
53995.0,STARLINK-5097,PAYLOAD,2024-05-10 14:17:48,15.08841079,0.000162,53.2181,333.275,87.4323,272.6854,-3.553e-05,-8.53e-06,0.0,0 STARLINK-5097,1 53995U 22125AH  24131.59570062 -.00000853  00000-0 -35530-4 0  9996,2 53995  53.2181 333.2750 0001620  87.4323 272.6854 15.08841079 88599,6917.877,95.437,540.863,538.621,0.0
53995.0,STARLINK-5097,PAYLOAD,2024-05-10 20:39:21,15.08846829,0.0001426,53.2182,332.0892,98.2662,261.8492,7.4487e-05,8.98e-06,0.0,0 STARLINK-5097,1 53995U 22125AH  24131.86065985  .00000898  00000-0  74487-4 0  9990,2 53995  53.2182 332.0892 0001426  98.2662 261.8492 15.08846829 88714,6917.86,95.437,540.711,538.738,0.0
53995.0,STARLINK-5097,PAYLOAD,2024-05-10 23:50:07,15.08860133,0.0001154,53.2166,331.4889,65.7189,294.3923,0.00035724,5.405e-05,0.0,0 STARLINK-5097,1 53995U 22125AH  24131.99313755  .00005405  00000-0  35724-3 0  9994,2 53995  53.2166 331.4889 0001154  65.7189 294.3923 15.08860133 88732,6917.819,95.436,540.482,538.886,0.0
53995.0,STARLINK-5097,PAYLOAD,2024-05-11 20:30:04,15.08871001,0.0001516,53.2171,327.6198,78.6645,281.4517,-2.4689e-06,-3.27e-06,0.0,0 STARLINK-5097,1 53995U 22125AH  24132.85422020 -.00000327  00000-0 -24689-5 0  9996,2 53995  53.2171 327.6198 0001516  78.6645 281.4517 15.08871001 88866,6917.786,95.436,540.699,538.602,0.0
53995.0,STARLINK-5097,PAYLOAD,2024-05-11 22:05:27,15.08871393,0.0001479,53.217,327.3225,79.7207,280.3952,-1.6022e-05,-5.43e-06,0.0,0 STARLINK-5097,1 53995U 22125AH  24132.92045838 -.00000543  00000-0 -16022-4 0  9993,2 53995  53.2170 327.3225 0001479  79.7207 280.3952 15.08871393 88794,6917.784,95.436,540.673,538.626,0.0
53995.0,STARLINK-5097,PAYLOAD,2024-05-12 06:02:24,15.08817355,0.0001571,53.2176,325.8364,98.8309,261.2861,-0.0011262,-0.00018156,0.0,0 STARLINK-5097,1 53995U 22125AH  24133.25167756 -.00018156  00000-0 -11262-2 0  9992,2 53995  53.2176 325.8364 0001571  98.8309 261.2861 15.08817355 88925,6917.95,95.439,540.901,538.728,0.0
53995.0,STARLINK-5097,PAYLOAD,2024-05-12 20:20:56,15.0876773,0.0001366,53.2167,323.1643,102.9784,257.1361,-0.0016096,-0.00025763,0.0,0 STARLINK-5097,1 53995U 22125AH  24133.84787622 -.00025763  00000-0 -16096-2 0  9999,2 53995  53.2167 323.1643 0001366 102.9784 257.1361 15.08767730 89013,6918.101,95.442,540.911,539.021,0.0
53995.0,STARLINK-5097,PAYLOAD,2024-05-12 21:56:19,15.08767129,0.0001318,53.2169,322.8662,94.7894,265.3249,-0.0015166,-0.00024295,0.0,0 STARLINK-5097,1 53995U 22125AH  24133.91411939 -.00024295  00000-0 -15166-2 0  9998,2 53995  53.2169 322.8662 0001318  94.7894 265.3249 15.08767129 88948,6918.103,95.442,540.88,539.056,0.0
53995.0,STARLINK-5097,PAYLOAD,2024-05-13 12:14:49,15.08791813,9.35e-05,53.2183,320.189,196.5263,163.5699,0.0015102,0.00023797,0.0,0 STARLINK-5097,1 53995U 22125AH  24134.51029248  .00023797  00000-0  15102-2 0  9997,2 53995  53.2183 320.1890 0000935 196.5263 163.5699 15.08791813 89118,6918.028,95.441,540.54,539.246,0.0
53995.0,STARLINK-5097,PAYLOAD,2024-05-13 18:36:21,15.088389,0.0001533,53.2164,319.0017,104.0063,256.11,0.0019634,0.00031097,0.0,0 STARLINK-5097,1 53995U 22125AH  24134.77525223  .00031097  00000-0  19634-2 0  9995,2 53995  53.2164 319.0017 0001533 104.0063 256.1100 15.08838900 89151,6917.884,95.438,540.809,538.688,0.0
53995.0,STARLINK-5097,PAYLOAD,2024-05-14 05:44:03,15.08853766,0.000153,53.2164,316.9198,102.2994,257.8169,0.001239,0.00019493,0.0,0 STARLINK-5097,1 53995U 22125AH  24135.23892520  .00019493  00000-0  12390-2 0  9992,2 53995  53.2164 316.9198 0001530 102.2994 257.8169 15.08853766 89146,6917.838,95.437,540.762,538.645,0.0
53995.0,STARLINK-5097,PAYLOAD,2024-05-14 18:27:06,15.08877257,0.0001397,53.2163,314.5407,97.3672,262.7479,0.00074431,0.0001159,0.0,0 STARLINK-5097,1 53995U 22125AH  24135.76882954  .00011590  00000-0  74431-3 0  9995,2 53995  53.2163 314.5407 0001397  97.3672 262.7479 15.08877257 89308,6917.767,95.435,540.598,538.665,0.0
53995.0,STARLINK-5097,PAYLOAD,2024-05-15 11:56:20,15.08860652,0.0001485,53.214,311.2668,94.0757,266.0405,0.00011346,1.519e-05,0.0,0 STARLINK-5097,1 53995U 22125AH  24136.49746285  .00001519  00000-0  11346-3 0  9998,2 53995  53.2140 311.2668 0001485  94.0757 266.0405 15.08860652 89411,6917.817,95.436,540.71,538.655,0.0
53995.0,STARLINK-5097,PAYLOAD,2024-05-15 18:17:53,15.08857102,0.000139,53.218,310.0772,97.2409,262.8741,2.0336e-05,3.6e-07,0.0,0 STARLINK-5097,1 53995U 22125AH  24136.76242202  .00000036  00000-0  20336-4 0  9991,2 53995  53.2180 310.0772 0001390  97.2409 262.8741 15.08857102 89370,6917.828,95.436,540.655,538.732,0.0
53995.0,STARLINK-5097,PAYLOAD,2024-05-16 11:47:07,15.08845984,0.0001431,53.2174,306.8077,90.1912,269.9244,2.9372e-05,1.8e-06,0.0,0 STARLINK-5097,1 53995U 22125AH  24137.49106292  .00000180  00000-0  29372-4 0  9999,2 53995  53.2174 306.8077 0001431  90.1912 269.9244 15.08845984 89563,6917.862,95.437,540.717,538.737,0.0
53995.0,STARLINK-5097,PAYLOAD,2024-05-16 18:08:40,15.08860664,0.0001048,53.2171,305.6192,63.3976,296.7124,0.0005109,7.857e-05,0.0,0 STARLINK-5097,1 53995U 22125AH  24137.75601963  .00007857  00000-0  51090-3 0  9992,2 53995  53.2171 305.6192 0001048  63.3976 296.7124 15.08860664 89524,6917.817,95.436,540.407,538.957,0.0
53995.0,STARLINK-5097,PAYLOAD,2024-05-17 11:37:55,15.08836196,0.0002168,53.2181,302.3475,84.7283,275.3957,-9.8613e-06,-4.45e-06,0.0,0 STARLINK-5097,1 53995U 22125AH  24138.48466748 -.00000445  00000-0 -98613-5 0  9995,2 53995  53.2181 302.3475 0002168  84.7283 275.3957 15.08836196 89716,6917.892,95.438,541.257,538.257,0.0
53995.0,STARLINK-5097,PAYLOAD,2024-05-17 17:59:28,15.08822357,0.0001339,53.2177,301.1589,78.5233,281.5909,-0.00023458,-4.017e-05,0.0,0 STARLINK-5097,1 53995U 22125AH  24138.74963374 -.00004017  00000-0 -23458-3 0  9993,2 53995  53.2177 301.1589 0001339  78.5233 281.5909 15.08822357 89753,6917.934,95.439,540.726,538.873,0.0
53995.0,STARLINK-5097,PAYLOAD,2024-05-18 03:31:47,15.08832931,0.0001649,53.2166,299.372,82.0165,278.1015,-0.00016715,-2.947e-05,0.0,0 STARLINK-5097,1 53995U 22125AH  24139.14707334 -.00002947  00000-0 -16715-3 0  9998,2 53995  53.2166 299.3720 0001649  82.0165 278.1015 15.08832931 89810,6917.902,95.438,540.908,538.626,0.0
53995.0,STARLINK-5097,PAYLOAD,2024-05-18 14:39:27,15.08862398,9.41e-05,53.2139,297.2897,78.4381,281.6717,0.00042241,6.445e-05,0.0,0 STARLINK-5097,1 53995U 22125AH  24139.61073906  .00006445  00000-0  42241-3 0  9999,2 53995  53.2139 297.2897 0000941  78.4381 281.6717 15.08862398 89802,6917.812,95.436,540.328,539.026,0.0
53995.0,STARLINK-5097,PAYLOAD,2024-05-18 19:25:36,15.08873193,9.21e-05,53.217,296.3995,60.7697,299.3388,0.00062792,9.729e-05,0.0,0 STARLINK-5097,1 53995U 22125AH  24139.80945362  .00009729  00000-0  62792-3 0  9995,2 53995  53.2170 296.3995 0000921  60.7697 299.3388 15.08873193 89915,6917.779,95.435,540.281,539.007,0.0
53995.0,STARLINK-5097,PAYLOAD,2024-05-19 03:22:33,15.08834476,0.0001792,53.2163,294.9114,87.4163,272.7034,6.187e-06,-1.9e-06,0.0,0 STARLINK-5097,1 53995U 22125AH  24140.14066977 -.00000190  00000-0  61870-5 0  9992,2 53995  53.2163 294.9114 0001792  87.4163 272.7034 15.08834476 89964,6917.897,95.438,541.002,538.523,0.0
53995.0,STARLINK-5097,PAYLOAD,2024-05-20 14:21:03,15.08853096,0.0001304,53.2166,288.3727,102.6961,257.4177,0.00090707,0.00014183,0.0,0 STARLINK-5097,1 53995U 22125AH  24141.59795328  .00014183  00000-0  90707-3 0  9996,2 53995  53.2166 288.3727 0001304 102.6961 257.4177 15.08853096 90104,6917.84,95.437,540.607,538.803,0.0
53995.0,STARLINK-5097,PAYLOAD,2024-05-20 19:07:12,15.08881932,0.0001182,53.2159,287.4795,104.0421,256.0703,0.0020469,0.00032476,0.0,0 STARLINK-5097,1 53995U 22125AH  24141.79666866  .00032476  00000-0  20469-2 0  9994,2 53995  53.2159 287.4795 0001182 104.0421 256.0703 15.08881932 90214,6917.752,95.435,540.435,538.8,0.0
53995.0,STARLINK-5097,PAYLOAD,2024-05-21 09:25:40,15.08852436,0.0001846,53.2162,284.8039,91.9329,268.1874,0.00091223,0.00014265,0.0,0 STARLINK-5097,1 53995U 22125AH  24142.39283335  .00014265  00000-0  91223-3 0  9990,2 53995  53.2162 284.8039 0001846  91.9329 268.1874 15.08852436 90308,6917.842,95.437,540.984,538.43,0.0
53995.0,STARLINK-5097,PAYLOAD,2024-05-21 14:11:50,15.08843128,0.0002708,53.2167,283.9068,132.3362,227.786,0.0010447,0.00016379,0.0,0 STARLINK-5097,1 53995U 22125AH  24142.59155145  .00016379  00000-0  10447-2 0  9995,2 53995  53.2167 283.9068 0002708 132.3362 227.7860 15.08843128 90258,6917.871,95.437,541.609,537.862,0.0
53995.0,STARLINK-5097,PAYLOAD,2024-05-21 15:47:13,15.08851735,0.0001144,53.2168,283.6147,82.7097,277.4025,0.00061769,9.559e-05,0.0,0 STARLINK-5097,1 53995U 22125AH  24142.65779284  .00009559  00000-0  61769-3 0  9994,2 53995  53.2168 283.6147 0001144  82.7097 277.4025 15.08851735 90269,6917.845,95.437,540.501,538.918,0.0
53995.0,STARLINK-5097,PAYLOAD,2024-05-22 09:16:28,15.08845166,0.0001332,53.2171,280.3459,87.534,272.5804,0.00067676,0.00010501,0.0,0 STARLINK-5097,1 53995U 22125AH  24143.38643569  .00010501  00000-0  67676-3 0  9993,2 53995  53.2171 280.3459 0001332  87.5340 272.5804 15.08845166 90459,6917.865,95.437,540.651,538.808,0.0
53995.0,STARLINK-5097,PAYLOAD,2024-05-23 12:18:01,15.08838793,0.0001553,53.2157,275.2882,106.7245,253.3918,8.4749e-05,1.061e-05,0.0,0 STARLINK-5097,1 53995U 22125AH  24144.51251544  .00001061  00000-0  84749-4 0  9999,2 53995  53.2157 275.2882 0001553 106.7245 253.3918 15.08838793 90629,6917.884,95.438,540.823,538.675,0.0
